#cP2005  4 30 00 00 00.00000000    8638 U+u   IGS00 FIT DEOS
## 1320 518400.00000000    10.00000000 53490 0.0000000000000
+    1   L06  0  0  0  0  0  0  0  0  0  0  0  0  0  0  0  0
+          0  0  0  0  0  0  0  0  0  0  0  0  0  0  0  0  0
+          0  0  0  0  0  0  0  0  0  0  0  0  0  0  0  0  0
+          0  0  0  0  0  0  0  0  0  0  0  0  0  0  0  0  0
+          0  0  0  0  0  0  0  0  0  0  0  0  0  0  0  0  0
++         0  0  0  0  0  0  0  0  0  0  0  0  0  0  0  0  0
++         0  0  0  0  0  0  0  0  0  0  0  0  0  0  0  0  0
++         0  0  0  0  0  0  0  0  0  0  0  0  0  0  0  0  0
++         0  0  0  0  0  0  0  0  0  0  0  0  0  0  0  0  0
++         0  0  0  0  0  0  0  0  0  0  0  0  0  0  0  0  0
%c cc cc ccc ccc cccc cccc cccc cccc ccccc ccccc ccccc ccccc
%c cc cc ccc ccc cccc cccc cccc cccc ccccc ccccc ccccc ccccc
%f   .0000000   .000000000   .00000000000   .000000000000000
%f   .0000000   .000000000   .00000000000   .000000000000000
%i    0    0    0    0      0      0      0      0         0
%i    0    0    0    0      0      0      0      0         0
/* NOTE: CCCCCCCCCCCCCCCCCCCCCCCCCCCCCCCCCCCCCCCCCCCCCCCCCCC
/* CCCCCCCCCCCCCCCCCCCCCCCCCCCCCCCCCCCCCCCCCCCCCCCCCCCCCCCCC
/* CCCCCCCCCCCCCCCCCCCCCCCCCCCCCCCCCCCCCCCCCCCCCCCCCCCCCCCCC
/* CCCCCCCCCCCCCCCCCCCCCCCCCCCCCCCCCCCCCCCCCCCCCCCCCCCCCCCCC
*  2005 04 30 15 30 00.00000000
PL06  -1628.228359   5981.092223  -2653.144764 999999.999999
*  2005 04 30 15 30 10.00000000
PL06  -1635.532005   6009.935706  -2582.377089 999999.999999
*  2005 04 30 15 30 20.00000000
PL06  -1642.582279   6038.011090  -2511.272521 999999.999999
*  2005 04 30 15 30 30.00000000
PL06  -1649.379373   6065.314301  -2439.840307 999999.999999
*  2005 04 30 15 30 40.00000000
PL06  -1655.923518   6091.841368  -2368.089741 999999.999999
*  2005 04 30 15 30 50.00000000
PL06  -1662.214983   6117.588417  -2296.030158 999999.999999
*  2005 04 30 15 31 00.00000000
PL06  -1668.254077   6142.551679  -2223.670935 999999.999999
*  2005 04 30 15 31 10.00000000
PL06  -1674.041146   6166.727486  -2151.021490 999999.999999
*  2005 04 30 15 31 20.00000000
PL06  -1679.576574   6190.112273  -2078.091281 999999.999999
*  2005 04 30 15 31 30.00000000
PL06  -1684.860784   6212.702579  -2004.889805 999999.999999
*  2005 04 30 15 31 40.00000000
PL06  -1689.894234   6234.495045  -1931.426595 999999.999999
*  2005 04 30 15 31 50.00000000
PL06  -1694.677421   6255.486417  -1857.711219 999999.999999
*  2005 04 30 15 32 00.00000000
PL06  -1699.210881   6275.673546  -1783.753282 999999.999999
*  2005 04 30 15 32 10.00000000
PL06  -1703.495183   6295.053390  -1709.562420 999999.999999
*  2005 04 30 15 32 20.00000000
PL06  -1707.530936   6313.623009  -1635.148302 999999.999999
*  2005 04 30 15 32 30.00000000
PL06  -1711.318783   6331.379573  -1560.520629 999999.999999
*  2005 04 30 15 32 40.00000000
PL06  -1714.859405   6348.320357  -1485.689132 999999.999999
*  2005 04 30 15 32 50.00000000
PL06  -1718.153520   6364.442742  -1410.663568 999999.999999
*  2005 04 30 15 33 00.00000000
PL06  -1721.201879   6379.744221  -1335.453724 999999.999999
*  2005 04 30 15 33 10.00000000
PL06  -1724.005272   6394.222391  -1260.069412 999999.999999
*  2005 04 30 15 33 20.00000000
PL06  -1726.564521   6407.874961  -1184.520469 999999.999999
*  2005 04 30 15 33 30.00000000
PL06  -1728.880486   6420.699749  -1108.816754 999999.999999
*  2005 04 30 15 33 40.00000000
PL06  -1730.954063   6432.694681  -1032.968147 999999.999999
*  2005 04 30 15 33 50.00000000
PL06  -1732.786178   6443.857795   -956.984551 999999.999999
*  2005 04 30 15 34 00.00000000
PL06  -1734.377799   6454.187238   -880.875885 999999.999999
*  2005 04 30 15 34 10.00000000
PL06  -1735.729920   6463.681265   -804.652086 999999.999999
*  2005 04 30 15 34 20.00000000
PL06  -1736.843574   6472.338245   -728.323110 999999.999999
*  2005 04 30 15 34 30.00000000
PL06  -1737.719825   6480.156655   -651.898926 999999.999999
*  2005 04 30 15 34 40.00000000
PL06  -1738.359769   6487.135085   -575.389519 999999.999999
*  2005 04 30 15 34 50.00000000
PL06  -1738.764537   6493.272237   -498.804888 999999.999999
*  2005 04 30 15 35 00.00000000
PL06  -1738.935292   6498.566926   -422.155041 999999.999999
*  2005 04 30 15 35 10.00000000
PL06  -1738.873227   6503.018078   -345.449998 999999.999999
*  2005 04 30 15 35 20.00000000
PL06  -1738.579571   6506.624735   -268.699786 999999.999999
*  2005 04 30 15 35 30.00000000
PL06  -1738.055582   6509.386050   -191.914439 999999.999999
*  2005 04 30 15 35 40.00000000
PL06  -1737.302552   6511.301290   -115.103998 999999.999999
*  2005 04 30 15 35 50.00000000
PL06  -1736.321801   6512.369834    -38.278506 999999.999999
*  2005 04 30 15 36 00.00000000
PL06  -1735.114683   6512.591177     38.551991 999999.999999
*  2005 04 30 15 36 10.00000000
PL06  -1733.682580   6511.964924    115.377443 999999.999999
*  2005 04 30 15 36 20.00000000
PL06  -1732.026907   6510.490797    192.187804 999999.999999
*  2005 04 30 15 36 30.00000000
PL06  -1730.149105   6508.168628    268.973026 999999.999999
*  2005 04 30 15 36 40.00000000
PL06  -1728.050648   6504.998366    345.723064 999999.999999
*  2005 04 30 15 36 50.00000000
PL06  -1725.733036   6500.980073    422.427880 999999.999999
*  2005 04 30 15 37 00.00000000
PL06  -1723.197799   6496.113923    499.077439 999999.999999
*  2005 04 30 15 37 10.00000000
PL06  -1720.446496   6490.400205    575.661712 999999.999999
*  2005 04 30 15 37 20.00000000
PL06  -1717.480713   6483.839322    652.170680 999999.999999
*  2005 04 30 15 37 30.00000000
PL06  -1714.302064   6476.431791    728.594332 999999.999999
*  2005 04 30 15 37 40.00000000
PL06  -1710.912190   6468.178242    804.922671 999999.999999
*  2005 04 30 15 37 50.00000000
PL06  -1707.312760   6459.079418    881.145708 999999.999999
*  2005 04 30 15 38 00.00000000
PL06  -1703.505466   6449.136178    957.253470 999999.999999
*  2005 04 30 15 38 10.00000000
PL06  -1699.492030   6438.349490   1033.235999 999999.999999
*  2005 04 30 15 38 20.00000000
PL06  -1695.274198   6426.720441   1109.083352 999999.999999
*  2005 04 30 15 38 30.00000000
PL06  -1690.853740   6414.250227   1184.785605 999999.999999
*  2005 04 30 15 38 40.00000000
PL06  -1686.232453   6400.940158   1260.332852 999999.999999
*  2005 04 30 15 38 50.00000000
PL06  -1681.412157   6386.791658   1335.715207 999999.999999
*  2005 04 30 15 39 00.00000000
PL06  -1676.394696   6371.806263   1410.922805 999999.999999
*  2005 04 30 15 39 10.00000000
PL06  -1671.181937   6355.985623   1485.945807 999999.999999
*  2005 04 30 15 39 20.00000000
PL06  -1665.775773   6339.331498   1560.774393 999999.999999
*  2005 04 30 15 39 30.00000000
PL06  -1660.178117   6321.845762   1635.398773 999999.999999
*  2005 04 30 15 39 40.00000000
PL06  -1654.390905   6303.530403   1709.809181 999999.999999
*  2005 04 30 15 39 50.00000000
PL06  -1648.416095   6284.387516   1783.995882 999999.999999
*  2005 04 30 15 40 00.00000000
PL06  -1642.255667   6264.419313   1857.949168 999999.999999
*  2005 04 30 15 40 10.00000000
PL06  -1635.911620   6243.628112   1931.659362 999999.999999
*  2005 04 30 15 40 20.00000000
PL06  -1629.385977   6222.016346   2005.116822 999999.999999
*  2005 04 30 15 40 30.00000000
PL06  -1622.680779   6199.586556   2078.311935 999999.999999
*  2005 04 30 15 40 40.00000000
PL06  -1615.798086   6176.341395   2151.235126 999999.999999
*  2005 04 30 15 40 50.00000000
PL06  -1608.739980   6152.283625   2223.876853 999999.999999
*  2005 04 30 15 41 00.00000000
PL06  -1601.508559   6127.416117   2296.227615 999999.999999
*  2005 04 30 15 41 10.00000000
PL06  -1594.105942   6101.741853   2368.277945 999999.999999
*  2005 04 30 15 41 20.00000000
PL06  -1586.534265   6075.263923   2440.018419 999999.999999
*  2005 04 30 15 41 30.00000000
PL06  -1578.795681   6047.985526   2511.439653 999999.999999
*  2005 04 30 15 41 40.00000000
PL06  -1570.892362   6019.909969   2582.532304 999999.999999
*  2005 04 30 15 41 50.00000000
PL06  -1562.826496   5991.040665   2653.287074 999999.999999
*  2005 04 30 15 42 00.00000000
PL06  -1554.600286   5961.381136   2723.694710 999999.999999
*  2005 04 30 15 42 10.00000000
PL06  -1546.215952   5930.935010   2793.746003 999999.999999
*  2005 04 30 15 42 20.00000000
PL06  -1537.675729   5899.706023   2863.431793 999999.999999
*  2005 04 30 15 42 30.00000000
PL06  -1528.981868   5867.698014   2932.742967 999999.999999
*  2005 04 30 15 42 40.00000000
PL06  -1520.136632   5834.914930   3001.670463 999999.999999
*  2005 04 30 15 42 50.00000000
PL06  -1511.142302   5801.360822   3070.205268 999999.999999
*  2005 04 30 15 43 00.00000000
PL06  -1502.001169   5767.039846   3138.338422 999999.999999
*  2005 04 30 15 43 10.00000000
PL06  -1492.715539   5731.956261   3206.061020 999999.999999
*  2005 04 30 15 43 20.00000000
PL06  -1483.287729   5696.114429   3273.364210 999999.999999
*  2005 04 30 15 43 30.00000000
PL06  -1473.720070   5659.518814   3340.239196 999999.999999
*  2005 04 30 15 43 40.00000000
PL06  -1464.014903   5622.173984   3406.677240 999999.999999
*  2005 04 30 15 43 50.00000000
PL06  -1454.174584   5584.084603   3472.669660 999999.999999
*  2005 04 30 15 44 00.00000000
PL06  -1444.201474   5545.255441   3538.207834 999999.999999
*  2005 04 30 15 44 10.00000000
PL06  -1434.097950   5505.691363   3603.283198 999999.999999
*  2005 04 30 15 44 20.00000000
PL06  -1423.866396   5465.397337   3667.887251 999999.999999
*  2005 04 30 15 44 30.00000000
PL06  -1413.509208   5424.378428   3732.011554 999999.999999
*  2005 04 30 15 44 40.00000000
PL06  -1403.028788   5382.639801   3795.647731 999999.999999
*  2005 04 30 15 44 50.00000000
PL06  -1392.427550   5340.186717   3858.787470 999999.999999
*  2005 04 30 15 45 00.00000000
PL06  -1381.707914   5297.024536   3921.422529 999999.999999
*  2005 04 30 15 45 10.00000000
PL06  -1370.872310   5253.158710   3983.544728 999999.999999
*  2005 04 30 15 45 20.00000000
PL06  -1359.923172   5208.594790   4045.145959 999999.999999
EOF
